[{"OBJECT_NAME":"JILIN-1 GAOFEN 03D18","OBJECT_ID":"2022-019W","EPOCH":"2026-03-09T22:03:04.622400","MEAN_MOTION":15.76695092,"ECCENTRICITY":0.00043918,"INCLINATION":97.3672,"RA_OF_ASC_NODE":161.2344,"ARG_OF_PERICENTER":144.1291,"MEAN_ANOMALY":216.027,"EPHEMERIS_TYPE":0,"CLASSIFICATION_TYPE":"U","NORAD_CAT_ID":51844,"ELEMENT_SET_NO":999,"REV_AT_EPOCH":22438,"BSTAR":0.0011951386,"MEAN_MOTION_DOT":0.00194669,"MEAN_MOTION_DDOT":0},{"OBJECT_NAME":"STARLINK-36575","OBJECT_ID":"2026-016J","EPOCH":"2026-03-09T17:28:59.894400","MEAN_MOTION":15.75207615,"ECCENTRICITY":0.00018468,"INCLINATION":97.284,"RA_OF_ASC_NODE":129.2838,"ARG_OF_PERICENTER":50.1576,"MEAN_ANOMALY":309.9852,"EPHEMERIS_TYPE":0,"CLASSIFICATION_TYPE":"U","NORAD_CAT_ID":67569,"ELEMENT_SET_NO":999,"REV_AT_EPOCH":681,"BSTAR":0.0016342806,"MEAN_MOTION_DOT":0.00251133,"MEAN_MOTION_DDOT":0}]
